NORAD_CAT_ID,OBJECT_NAME,OBJECT_TYPE,EPOCH,MEAN_MOTION,ECCENTRICITY,INCLINATION,RA_OF_ASC_NODE,ARG_OF_PERICENTER,MEAN_ANOMALY,BSTAR,MEAN_MOTION_DOT,MEAN_MOTION_DDOT,TLE_LINE0,TLE_LINE1,TLE_LINE2,SEMIMAJOR_AXIS,PERIOD,APOGEE,PERIGEE,DECAYED
53608.0,STARLINK-4647,PAYLOAD,2024-06-12 09:21:43,15.08839196,0.0001188,53.2147,206.2852,79.6387,280.4739,6.8348e-05,8e-06,0.0,0 STARLINK-4647,1 53608U 22104W   24164.39008641  .00000800  00000-0  68348-4 0  9990,2 53608  53.2147 206.2852 0001188  79.6387 280.4739 15.08839196 99729,6917.883,95.438,540.57,538.926,0.0
53608.0,STARLINK-4647,PAYLOAD,2024-06-13 09:12:30,15.08838721,0.0001316,53.2159,201.8248,86.0874,274.0269,0.00011246,1.502e-05,0.0,0 STARLINK-4647,1 53608U 22104W   24165.38368889  .00001502  00000-0  11246-3 0  9997,2 53608  53.2159 201.8248 0001316  86.0874 274.0269 15.08838721 99302,6917.884,95.438,540.66,538.839,0.0
53608.0,STARLINK-4647,PAYLOAD,2024-06-14 12:14:04,15.08839011,0.0001159,53.215,196.7682,83.7032,276.4092,0.00010937,1.453e-05,0.0,0 STARLINK-4647,1 53608U 22104W   24166.50977028  .00001453  00000-0  10937-3 0  9994,2 53608  53.2150 196.7682 0001159  83.7032 276.4092 15.08839011100049,6917.883,95.438,540.55,538.947,0.0
53608.0,STARLINK-4647,PAYLOAD,2024-06-14 18:35:36,15.08841788,0.0001174,53.2152,195.5788,83.9914,276.1212,0.00013288,1.828e-05,0.0,0 STARLINK-4647,1 53608U 22104W   24166.77472881  .00001828  00000-0  13288-3 0  9998,2 53608  53.2152 195.5788 0001174  83.9914 276.1212 15.08841788100082,6917.875,95.437,540.552,538.928,0.0
53608.0,STARLINK-4647,PAYLOAD,2024-06-15 08:54:04,15.08840347,0.0001229,53.2164,192.903,87.5416,272.5716,0.00011667,1.569e-05,0.0,0 STARLINK-4647,1 53608U 22104W   24167.37089098  .00001569  00000-0  11667-3 0  9990,2 53608  53.2164 192.9030 0001229  87.5416 272.5716 15.08840347100173,6917.879,95.438,540.595,538.894,0.0
53608.0,STARLINK-4647,PAYLOAD,2024-06-15 18:26:23,15.08843741,0.0001259,53.2166,191.1188,87.2281,272.8856,0.00013366,1.84e-05,0.0,0 STARLINK-4647,1 53608U 22104W   24167.76832858  .00001840  00000-0  13366-3 0  9993,2 53608  53.2166 191.1188 0001259  87.2281 272.8856 15.08843741100236,6917.869,95.437,540.605,538.863,0.0
53608.0,STARLINK-4647,PAYLOAD,2024-06-16 10:20:15,15.0884004,0.0001324,53.2167,188.146,92.3185,267.7959,8.1032e-05,1.002e-05,0.0,0 STARLINK-4647,1 53608U 22104W   24168.43073173  .00001002  00000-0  81032-4 0  9991,2 53608  53.2167 188.1460 0001324  92.3185 267.7959 15.08840040100336,6917.88,95.438,540.661,538.829,0.0
53608.0,STARLINK-4647,PAYLOAD,2024-06-17 18:07:57,15.08841558,0.0001346,53.2166,182.198,87.6935,272.4211,4.0059e-05,3.5e-06,0.0,0 STARLINK-4647,1 53608U 22104W   24169.75553161  .00000350  00000-0  40059-4 0  9996,2 53608  53.2166 182.1980 0001346  87.6935 272.4211 15.08841558 99965,6917.876,95.437,540.672,538.809,0.0
53608.0,STARLINK-4647,PAYLOAD,2024-06-18 08:26:25,15.08843913,0.0001209,53.2156,179.5204,90.8391,269.274,0.00010349,1.36e-05,0.0,0 STARLINK-4647,1 53608U 22104W   24170.35168752  .00001360  00000-0  10349-3 0  9992,2 53608  53.2156 179.5204 0001209  90.8391 269.2740 15.08843913100627,6917.868,95.437,540.57,538.897,0.0
53608.0,STARLINK-4647,PAYLOAD,2024-06-18 17:58:44,15.08844485,0.000119,53.2155,177.7361,90.6872,269.4256,9.5671e-05,1.235e-05,0.0,0 STARLINK-4647,1 53608U 22104W   24170.74912630  .00001235  00000-0  95671-4 0  9990,2 53608  53.2155 177.7361 0001190  90.6872 269.4256 15.08844485100686,6917.867,95.437,540.555,538.908,0.0
53608.0,STARLINK-4647,PAYLOAD,2024-06-19 00:20:17,15.08839265,0.000126,53.2158,176.5481,87.8392,272.2745,6.3804e-05,7.28e-06,0.0,0 STARLINK-4647,1 53608U 22104W   24171.01409087  .00000728  00000-0  63804-4 0  9997,2 53608  53.2158 176.5481 0001260  87.8392 272.2745 15.08839265100159,6917.883,95.438,540.619,538.876,0.0
53608.0,STARLINK-4647,PAYLOAD,2024-06-19 06:41:50,15.08836884,0.0001268,53.2161,175.3584,88.1986,271.9152,3.7379e-05,3.07e-06,0.0,0 STARLINK-4647,1 53608U 22104W   24171.27905327  .00000307  00000-0  37379-4 0  9994,2 53608  53.2161 175.3584 0001268  88.1986 271.9152 15.08836884100764,6917.89,95.438,540.632,538.878,0.0
53608.0,STARLINK-4647,PAYLOAD,2024-06-19 17:49:31,15.08840363,0.0001287,53.2161,173.2769,87.6886,272.4253,5.6012e-05,6.04e-06,0.0,0 STARLINK-4647,1 53608U 22104W   24171.74273060  .00000604  00000-0  56012-4 0  9993,2 53608  53.2161 173.2769 0001287  87.6886 272.4253 15.08840363100833,6917.879,95.438,540.635,538.854,0.0
53608.0,STARLINK-4647,PAYLOAD,2024-06-20 04:57:13,15.08842806,0.0001293,53.2161,171.1952,88.0782,272.0358,4.1302e-05,3.7e-06,0.0,0 STARLINK-4647,1 53608U 22104W   24172.20640862  .00000370  00000-0  41302-4 0  9999,2 53608  53.2161 171.1952 0001293  88.0782 272.0358 15.08842806100332,6917.872,95.437,540.631,538.842,0.0
53608.0,STARLINK-4647,PAYLOAD,2024-06-20 06:32:36,15.08843415,0.0001315,53.2161,170.8974,91.0193,269.095,4.1775e-05,3.77e-06,0.0,0 STARLINK-4647,1 53608U 22104W   24172.27264791  .00000377  00000-0  41775-4 0  9990,2 53608  53.2161 170.8974 0001315  91.0193 269.0950 15.08843415100912,6917.87,95.437,540.645,538.825,0.0
53608.0,STARLINK-4647,PAYLOAD,2024-06-21 00:01:51,15.088362,0.0001298,53.2158,167.6261,91.0438,269.0703,5.315e-05,5.58e-06,0.0,0 STARLINK-4647,1 53608U 22104W   24173.00129182  .00000558  00000-0  53150-4 0  9997,2 53608  53.2158 167.6261 0001298  91.0438 269.0703 15.08836200100452,6917.892,95.438,540.655,538.859,0.0
53608.0,STARLINK-4647,PAYLOAD,2024-06-21 06:23:24,15.08833227,0.0001291,53.2161,166.4366,90.7201,269.3939,6.7065e-06,-1.81e-06,0.0,0 STARLINK-4647,1 53608U 22104W   24173.26625582 -.00000181  00000-0  67065-5 0  9994,2 53608  53.2161 166.4366 0001291  90.7201 269.3939 15.08833227101064,6917.901,95.438,540.659,538.873,0.0
53608.0,STARLINK-4647,PAYLOAD,2024-06-22 04:38:48,15.08837642,0.0001314,53.2165,162.2737,90.3166,269.7976,2.0322e-05,3.6e-07,0.0,0 STARLINK-4647,1 53608U 22104W   24174.19361525  .00000036  00000-0  20322-4 0  9993,2 53608  53.2165 162.2737 0001314  90.3166 269.7976 15.08837642100638,6917.888,95.438,540.662,538.844,0.0
53608.0,STARLINK-4647,PAYLOAD,2024-06-22 06:14:11,15.08839047,0.0001306,53.2162,161.9757,90.5289,269.5853,2.2309e-05,6.7e-07,0.0,0 STARLINK-4647,1 53608U 22104W   24174.25985424  .00000067  00000-0  22309-4 0  9991,2 53608  53.2162 161.9757 0001306  90.5289 269.5853 15.08839047101210,6917.883,95.438,540.652,538.845,0.0
53608.0,STARLINK-4647,PAYLOAD,2024-06-23 07:40:21,15.08836451,0.0001308,53.2163,157.2179,88.7821,271.3321,9.227e-05,1.181e-05,0.0,0 STARLINK-4647,1 53608U 22104W   24175.31969619  .00001181  00000-0  92270-4 0  9999,2 53608  53.2163 157.2179 0001308  88.7821 271.3321 15.08836451100801,6917.891,95.438,540.661,538.851,0.0
53608.0,STARLINK-4647,PAYLOAD,2024-06-24 07:31:08,15.08842148,0.0001354,53.2165,152.7566,88.3762,271.7385,7.1584e-05,8.52e-06,0.0,0 STARLINK-4647,1 53608U 22104W   24176.31329460  .00000852  00000-0  71584-4 0  9993,2 53608  53.2165 152.7566 0001354  88.3762 271.7385 15.08842148101528,6917.874,95.437,540.676,538.802,0.0
53608.0,STARLINK-4647,PAYLOAD,2024-06-25 04:11:09,15.08837399,0.0001427,53.2168,148.8896,86.3595,273.756,2.5976e-05,1.25e-06,0.0,0 STARLINK-4647,1 53608U 22104W   24177.17441951  .00000125  00000-0  25976-4 0  9995,2 53608  53.2168 148.8896 0001427  86.3595 273.7560 15.08837399101086,6917.888,95.438,540.741,538.766,0.0
53608.0,STARLINK-4647,PAYLOAD,2024-06-25 05:46:33,15.08837132,0.0001413,53.2168,148.5931,87.0041,273.1113,2.2077e-05,6.3e-07,0.0,0 STARLINK-4647,1 53608U 22104W   24177.24065989  .00000063  00000-0  22077-4 0  9996,2 53608  53.2168 148.5931 0001413  87.0041 273.1113 15.08837132101669,6917.889,95.438,540.732,538.777,0.0
53608.0,STARLINK-4647,PAYLOAD,2024-06-26 05:37:19,15.08846296,0.0001367,53.2163,144.1315,94.2086,265.9062,7.6579e-05,9.31e-06,0.0,0 STARLINK-4647,1 53608U 22104W   24178.23425192  .00000931  00000-0  76579-4 0  9992,2 53608  53.2163 144.1315 0001367  94.2086 265.9062 15.08846296101246,6917.861,95.437,540.672,538.78,0.0
53608.0,STARLINK-4647,PAYLOAD,2024-06-27 03:52:43,15.08838995,0.0001375,53.2163,139.9693,92.8744,267.2406,5.603e-05,6.04e-06,0.0,0 STARLINK-4647,1 53608U 22104W   24179.16161741  .00000604  00000-0  56030-4 0  9999,2 53608  53.2163 139.9693 0001375  92.8744 267.2406 15.08838995101380,6917.883,95.438,540.7,538.797,0.0
53608.0,STARLINK-4647,PAYLOAD,2024-06-27 15:00:25,15.08845462,0.0001411,53.2168,137.8891,91.9241,268.1913,9.0481e-05,1.153e-05,0.0,0 STARLINK-4647,1 53608U 22104W   24179.62529220  .00001153  00000-0  90481-4 0  9998,2 53608  53.2168 137.8891 0001411  91.9241 268.1913 15.08845462101453,6917.864,95.437,540.705,538.753,0.0
53608.0,STARLINK-4647,PAYLOAD,2024-06-28 03:43:30,15.08840803,0.0001435,53.2163,135.5094,96.4905,263.625,1.6068e-05,-3.2e-07,0.0,0 STARLINK-4647,1 53608U 22104W   24180.15521659 -.00000032  00000-0  16068-4 0  9991,2 53608  53.2163 135.5094 0001435  96.4905 263.6250 15.08840803101538,6917.878,95.438,540.736,538.75,0.0
53608.0,STARLINK-4647,PAYLOAD,2024-06-29 13:06:35,15.0885946,0.000126,53.2163,129.2684,84.2157,275.8979,0.0001664,2.363e-05,0.0,0 STARLINK-4647,1 53608U 22104W   24181.54623874  .00002363  00000-0  16640-3 0  9990,2 53608  53.2163 129.2684 0001260  84.2157 275.8979 15.08859460101748,6917.821,95.436,540.558,538.814,0.0
53608.0,STARLINK-4647,PAYLOAD,2024-06-29 21:03:33,15.08814565,0.0001348,53.2165,127.7801,99.8732,260.2412,-0.00010427,-1.946e-05,0.0,0 STARLINK-4647,1 53608U 22104W   24181.87747556 -.00001946  00000-0 -10427-3 0  9995,2 53608  53.2165 127.7801 0001348  99.8732 260.2412 15.08814565102368,6917.958,95.439,540.756,538.891,0.0
53608.0,STARLINK-4647,PAYLOAD,2024-06-30 03:25:05,15.08820309,0.0001323,53.2155,126.5942,102.0384,258.0756,-0.00015291,-2.719e-05,0.0,0 STARLINK-4647,1 53608U 22104W   24182.14242639 -.00002719  00000-0 -15291-3 0  9991,2 53608  53.2155 126.5942 0001323 102.0384 258.0756 15.08820309101833,6917.941,95.439,540.721,538.89,0.0
